start=new Date('2022-11-30T00:00:00.000Z').valueOf();
sats=[{"DECAY_DATE":null,"ECCENTRICITY":"0.00015870","TIME_SYSTEM":"UTC","FILE":"3673849","NORAD_CAT_ID":"53735","BSTAR":"-0.00177290000000","OBJECT_TYPE":"PAYLOAD","CLASSIFICATION_TYPE":"U","SEMIMAJOR_AXIS":"6917.893","EPHEMERIS_TYPE":"0","MEAN_ANOMALY":"318.6594","PERIOD":"95.438","OBJECT_NAME":"STARLINK-4618","ELEMENT_SET_NO":"999","CENTER_NAME":"EARTH","TLE_LINE1":"1 53735U 22107AM  22333.91667824 -.00028390  00000-0 -17729-2 0  9993","TLE_LINE2":"2 53735  53.2148 231.9550 0001587  88.9268 318.6594 15.08835967  1307","GP_ID":"219113552","REV_AT_EPOCH":"130","PERIAPSIS":"538.660","SITE":"AFETR","RA_OF_ASC_NODE":"231.9550","MEAN_MOTION":"15.08835967","ARG_OF_PERICENTER":"88.9268","APOAPSIS":"540.856","COUNTRY_CODE":"US","OBJECT_ID":"2022-107AM","EPOCH":"2022-11-29T22:00:00.999936","MEAN_ELEMENT_THEORY":"SGP4","MEAN_MOTION_DOT":"-0.00028390","RCS_SIZE":"LARGE","REF_FRAME":"TEME","MEAN_MOTION_DDOT":"0.0000000000000","INCLINATION":"53.2148","LAUNCH_DATE":"2022-09-05"},{"LAUNCH_DATE":"2022-09-05","MEAN_MOTION_DDOT":"0.0000000000000","INCLINATION":"53.2147","REF_FRAME":"TEME","RCS_SIZE":"LARGE","MEAN_ELEMENT_THEORY":"SGP4","MEAN_MOTION_DOT":"-0.00022634","EPOCH":"2022-11-29T22:00:00.999936","OBJECT_ID":"2022-107AN","COUNTRY_CODE":"US","APOAPSIS":"541.099","ARG_OF_PERICENTER":"50.4821","MEAN_MOTION":"15.08835228","RA_OF_ASC_NODE":"222.3329","SITE":"AFETR","PERIAPSIS":"538.421","REV_AT_EPOCH":"130","GP_ID":"219114072","TLE_LINE2":"2 53736  53.2147 222.3329 0001935  50.4821 171.8577 15.08835228  1301","TLE_LINE1":"1 53736U 22107AN  22333.91667824 -.00022634  00000-0 -14086-2 0  9992","CENTER_NAME":"EARTH","ELEMENT_SET_NO":"999","OBJECT_NAME":"STARLINK-4652","PERIOD":"95.438","MEAN_ANOMALY":"171.8577","EPHEMERIS_TYPE":"0","SEMIMAJOR_AXIS":"6917.895","CLASSIFICATION_TYPE":"U","BSTAR":"-0.00140860000000","OBJECT_TYPE":"PAYLOAD","FILE":"3673849","NORAD_CAT_ID":"53736","TIME_SYSTEM":"UTC","ECCENTRICITY":"0.00019350","DECAY_DATE":null},{"CLASSIFICATION_TYPE":"U","BSTAR":"-0.00116270000000","OBJECT_TYPE":"PAYLOAD","NORAD_CAT_ID":"53737","FILE":"3673849","TIME_SYSTEM":"UTC","ECCENTRICITY":"0.00015340","DECAY_DATE":null,"CENTER_NAME":"EARTH","ELEMENT_SET_NO":"999","OBJECT_NAME":"STARLINK-4646","PERIOD":"95.438","MEAN_ANOMALY":"306.0853","EPHEMERIS_TYPE":"0","SEMIMAJOR_AXIS":"6917.881","MEAN_MOTION":"15.08839954","ARG_OF_PERICENTER":"81.4863","RA_OF_ASC_NODE":"231.9941","SITE":"AFETR","PERIAPSIS":"538.684","REV_AT_EPOCH":"130","TLE_LINE2":"2 53737  53.2147 231.9941 0001534  81.4863 306.0853 15.08839954  1302","GP_ID":"219114247","TLE_LINE1":"1 53737U 22107AP  22333.91667824 -.00018745  00000-0 -11627-2 0  9999","INCLINATION":"53.2147","MEAN_MOTION_DDOT":"0.0000000000000","LAUNCH_DATE":"2022-09-05","REF_FRAME":"TEME","RCS_SIZE":"LARGE","EPOCH":"2022-11-29T22:00:00.999936","MEAN_MOTION_DOT":"-0.00018745","MEAN_ELEMENT_THEORY":"SGP4","OBJECT_ID":"2022-107AP","COUNTRY_CODE":"US","APOAPSIS":"540.807"},{"RCS_SIZE":"LARGE","REF_FRAME":"TEME","LAUNCH_DATE":"2022-09-05","INCLINATION":"53.2155","MEAN_MOTION_DDOT":"0.0000000000000","APOAPSIS":"540.869","COUNTRY_CODE":"US","OBJECT_ID":"2022-107AQ","MEAN_ELEMENT_THEORY":"SGP4","MEAN_MOTION_DOT":"-0.00020366","EPOCH":"2022-11-29T22:00:00.999936","PERIAPSIS":"538.600","SITE":"AFETR","RA_OF_ASC_NODE":"231.9138","ARG_OF_PERICENTER":"65.7482","MEAN_MOTION":"15.08843453","TLE_LINE1":"1 53738U 22107AQ  22333.91667824 -.00020366  00000-0 -12650-2 0  9999","GP_ID":"219114766","TLE_LINE2":"2 53738  53.2155 231.9138 0001640  65.7482   1.9029 15.08843453  1305","REV_AT_EPOCH":"130","PERIOD":"95.437","OBJECT_NAME":"STARLINK-4662","ELEMENT_SET_NO":"999","CENTER_NAME":"EARTH","SEMIMAJOR_AXIS":"6917.870","EPHEMERIS_TYPE":"0","MEAN_ANOMALY":"1.9029","BSTAR":"-0.00126500000000","OBJECT_TYPE":"PAYLOAD","CLASSIFICATION_TYPE":"U","DECAY_DATE":null,"ECCENTRICITY":"0.00016400","TIME_SYSTEM":"UTC","NORAD_CAT_ID":"53738","FILE":"3673849"},{"TLE_LINE1":"1 53740U 22107AS  22333.91667824 -.00018507  00000-0 -11476-2 0  9991","GP_ID":"219113899","TLE_LINE2":"2 53740  53.2149 232.0322 0001459  81.6865 285.8588 15.08843092  1300","REV_AT_EPOCH":"130","PERIAPSIS":"538.727","SITE":"AFETR","RA_OF_ASC_NODE":"232.0322","MEAN_MOTION":"15.08843092","ARG_OF_PERICENTER":"81.6865","APOAPSIS":"540.745","COUNTRY_CODE":"US","OBJECT_ID":"2022-107AS","MEAN_ELEMENT_THEORY":"SGP4","MEAN_MOTION_DOT":"-0.00018507","EPOCH":"2022-11-29T22:00:00.999936","RCS_SIZE":"LARGE","REF_FRAME":"TEME","LAUNCH_DATE":"2022-09-05","MEAN_MOTION_DDOT":"0.0000000000000","INCLINATION":"53.2149","DECAY_DATE":null,"ECCENTRICITY":"0.00014590","TIME_SYSTEM":"UTC","FILE":"3673849","NORAD_CAT_ID":"53740","BSTAR":"-0.00114760000000","OBJECT_TYPE":"PAYLOAD","CLASSIFICATION_TYPE":"U","SEMIMAJOR_AXIS":"6917.871","EPHEMERIS_TYPE":"0","MEAN_ANOMALY":"285.8588","PERIOD":"95.437","OBJECT_NAME":"STARLINK-4607","ELEMENT_SET_NO":"999","CENTER_NAME":"EARTH"},{"APOAPSIS":"502.649","COUNTRY_CODE":"US","OBJECT_ID":"2022-107AT","EPOCH":"2022-11-29T22:00:00.999936","MEAN_ELEMENT_THEORY":"SGP4","MEAN_MOTION_DOT":"-0.00629388","RCS_SIZE":"LARGE","REF_FRAME":"TEME","MEAN_MOTION_DDOT":"0.0000000000000","INCLINATION":"53.2169","LAUNCH_DATE":"2022-09-05","TLE_LINE1":"1 53741U 22107AT  22333.91667824 -.00629388  00000-0 -29740-1 0  9999","TLE_LINE2":"2 53741  53.2169 217.3431 0001638  48.5238 217.2021 15.21432190  1304","GP_ID":"219113726","REV_AT_EPOCH":"130","PERIAPSIS":"500.395","SITE":"AFETR","RA_OF_ASC_NODE":"217.3431","MEAN_MOTION":"15.21432190","ARG_OF_PERICENTER":"48.5238","SEMIMAJOR_AXIS":"6879.657","EPHEMERIS_TYPE":"0","MEAN_ANOMALY":"217.2021","PERIOD":"94.648","OBJECT_NAME":"STARLINK-4614","ELEMENT_SET_NO":"999","CENTER_NAME":"EARTH","DECAY_DATE":null,"ECCENTRICITY":"0.00016380","TIME_SYSTEM":"UTC","NORAD_CAT_ID":"53741","FILE":"3673849","BSTAR":"-0.02974000000000","OBJECT_TYPE":"PAYLOAD","CLASSIFICATION_TYPE":"U"},{"CLASSIFICATION_TYPE":"U","OBJECT_TYPE":"PAYLOAD","BSTAR":"-0.00163490000000","TIME_SYSTEM":"UTC","FILE":"3673849","NORAD_CAT_ID":"53742","DECAY_DATE":null,"ECCENTRICITY":"0.00015520","ELEMENT_SET_NO":"999","CENTER_NAME":"EARTH","PERIOD":"95.438","OBJECT_NAME":"STARLINK-4637","EPHEMERIS_TYPE":"0","MEAN_ANOMALY":"275.5567","SEMIMAJOR_AXIS":"6917.915","RA_OF_ASC_NODE":"232.0717","MEAN_MOTION":"15.08828553","ARG_OF_PERICENTER":"71.9902","PERIAPSIS":"538.707","SITE":"AFETR","REV_AT_EPOCH":"130","TLE_LINE1":"1 53742U 22107AU  22333.91667824 -.00026205  00000-0 -16349-2 0  9991","GP_ID":"219114593","TLE_LINE2":"2 53742  53.2156 232.0717 0001552  71.9902 275.5567 15.08828553  1304","LAUNCH_DATE":"2022-09-05","MEAN_MOTION_DDOT":"0.0000000000000","INCLINATION":"53.2156","RCS_SIZE":"LARGE","REF_FRAME":"TEME","OBJECT_ID":"2022-107AU","MEAN_ELEMENT_THEORY":"SGP4","MEAN_MOTION_DOT":"-0.00026205","EPOCH":"2022-11-29T22:00:00.999936","APOAPSIS":"540.854","COUNTRY_CODE":"US"},{"CLASSIFICATION_TYPE":"U","BSTAR":"-0.00081901000000","OBJECT_TYPE":"PAYLOAD","NORAD_CAT_ID":"53743","FILE":"3673849","TIME_SYSTEM":"UTC","ECCENTRICITY":"0.00017340","DECAY_DATE":null,"CENTER_NAME":"EARTH","ELEMENT_SET_NO":"999","OBJECT_NAME":"STARLINK-4645","PERIOD":"95.437","MEAN_ANOMALY":"215.5714","EPHEMERIS_TYPE":"0","SEMIMAJOR_AXIS":"6917.866","MEAN_MOTION":"15.08844669","ARG_OF_PERICENTER":"51.8458","RA_OF_ASC_NODE":"232.2296","SITE":"AFETR","PERIAPSIS":"538.532","REV_AT_EPOCH":"130","TLE_LINE2":"2 53743  53.2155 232.2296 0001734  51.8458 215.5714 15.08844669  1307","GP_ID":"219114421","TLE_LINE1":"1 53743U 22107AV  22333.91667824 -.00013301  00000-0 -81901-3 0  9992","INCLINATION":"53.2155","MEAN_MOTION_DDOT":"0.0000000000000","LAUNCH_DATE":"2022-09-05","REF_FRAME":"TEME","RCS_SIZE":"LARGE","EPOCH":"2022-11-29T22:00:00.999936","MEAN_ELEMENT_THEORY":"SGP4","MEAN_MOTION_DOT":"-0.00013301","OBJECT_ID":"2022-107AV","COUNTRY_CODE":"US","APOAPSIS":"540.931"},{"CENTER_NAME":"EARTH","ELEMENT_SET_NO":"999","OBJECT_NAME":"STARLINK-4670","PERIOD":"95.438","EPHEMERIS_TYPE":"0","MEAN_ANOMALY":"265.8969","SEMIMAJOR_AXIS":"6917.901","CLASSIFICATION_TYPE":"U","BSTAR":"-0.00094610000000","OBJECT_TYPE":"PAYLOAD","FILE":"3673849","NORAD_CAT_ID":"53744","TIME_SYSTEM":"UTC","ECCENTRICITY":"0.00016090","DECAY_DATE":null,"LAUNCH_DATE":"2022-09-05","MEAN_MOTION_DDOT":"0.0000000000000","INCLINATION":"53.2146","REF_FRAME":"TEME","RCS_SIZE":"LARGE","MEAN_ELEMENT_THEORY":"SGP4","MEAN_MOTION_DOT":"-0.00015311","EPOCH":"2022-11-29T22:00:00.999936","OBJECT_ID":"2022-107AW","COUNTRY_CODE":"US","APOAPSIS":"540.879","ARG_OF_PERICENTER":"61.6083","MEAN_MOTION":"15.08833165","RA_OF_ASC_NODE":"232.1121","SITE":"AFETR","PERIAPSIS":"538.653","REV_AT_EPOCH":"130","GP_ID":"219113553","TLE_LINE2":"2 53744  53.2146 232.1121 0001609  61.6083 265.8969 15.08833165  1307","TLE_LINE1":"1 53744U 22107AW  22333.91667824 -.00015311  00000-0 -94610-3 0  9997"},{"REV_AT_EPOCH":"130","TLE_LINE2":"2 53745  53.2159 232.2697 0001470  64.6291 182.7854 15.08830094  1309","GP_ID":"219114073","TLE_LINE1":"1 53745U 22107AX  22333.91667824 -.00012776  00000-0 -78625-3 0  9998","MEAN_MOTION":"15.08830094","ARG_OF_PERICENTER":"64.6291","RA_OF_ASC_NODE":"232.2697","SITE":"AFETR","PERIAPSIS":"538.759","EPOCH":"2022-11-29T22:00:00.999936","MEAN_MOTION_DOT":"-0.00012776","MEAN_ELEMENT_THEORY":"SGP4","OBJECT_ID":"2022-107AX","COUNTRY_CODE":"US","APOAPSIS":"540.793","INCLINATION":"53.2159","MEAN_MOTION_DDOT":"0.0000000000000","LAUNCH_DATE":"2022-09-05","REF_FRAME":"TEME","RCS_SIZE":"LARGE","NORAD_CAT_ID":"53745","FILE":"3673849","TIME_SYSTEM":"UTC","ECCENTRICITY":"0.00014700","DECAY_DATE":null,"CLASSIFICATION_TYPE":"U","OBJECT_TYPE":"PAYLOAD","BSTAR":"-0.00078625000000","EPHEMERIS_TYPE":"0","MEAN_ANOMALY":"182.7854","SEMIMAJOR_AXIS":"6917.911","CENTER_NAME":"EARTH","ELEMENT_SET_NO":"999","OBJECT_NAME":"STARLINK-4656","PERIOD":"95.438"}];
